NORAD_CAT_ID,OBJECT_NAME,OBJECT_TYPE,EPOCH,MEAN_MOTION,ECCENTRICITY,INCLINATION,RA_OF_ASC_NODE,ARG_OF_PERICENTER,MEAN_ANOMALY,BSTAR,MEAN_MOTION_DOT,MEAN_MOTION_DDOT,TLE_LINE0,TLE_LINE1,TLE_LINE2,SEMIMAJOR_AXIS,PERIOD,APOGEE,PERIGEE,DECAYED
50842.0,STARLINK-3302,PAYLOAD,2022-02-04 08:58:18,15.72483707,0.0001968,53.2167,58.0832,19.8857,340.2239,-0.00056045,-0.00076218,0.0,0 STARLINK-3302,1 50842U 22001AR  22035.37382140 -.00076218  00000-0 -56045-3 0  9993,2 50842  53.2167  58.0832 0001968  19.8857 340.2239 15.72483707  5791,6729.938,91.575,353.12800000000016,350.47900000000016,0.0
50842.0,STARLINK-3302,PAYLOAD,2022-02-05 06:00:00,15.7087986,0.0001826,53.2173,53.7636,31.1416,246.7865,-0.005604,-0.00659804,0.0,0 STARLINK-3302,1 50842U 22001AR  22036.25001157 -.00659804  00000-0 -56040-2 0  9999,2 50842  53.2173  53.7636 0001826  31.1416 246.7865 15.70879860  5931,6734.518,91.668,357.61300000000006,355.153,0.0
50842.0,STARLINK-3302,PAYLOAD,2022-02-05 14:00:01,15.70414765,0.0001418,53.2171,52.1203,38.1967,325.5866,-0.0057277,-0.00661094,0.0,0 STARLINK-3302,1 50842U 22001AR  22036.58334491 -.00661094  00000-0 -57277-2 0  9992,2 50842  53.2171  52.1203 0001418  38.1967 325.5866 15.70414765  3706,6735.848000000001,91.696,358.668,356.7580000000001,0.0
50842.0,STARLINK-3302,PAYLOAD,2022-02-06 06:00:00,15.69478807,0.0001901,53.2175,48.8357,32.1301,141.6859,-0.0059201,-0.00657437,0.0,0 STARLINK-3302,1 50842U 22001AR  22037.25001157 -.00657437  00000-0 -59201-2 0  9992,2 50842  53.2175  48.8357 0001901  32.1301 141.6859 15.69478807  6094,6738.525,91.75,361.671,359.1090000000001,0.0
50842.0,STARLINK-3302,PAYLOAD,2022-02-06 14:00:01,15.69015726,0.0001429,53.2171,47.1955,47.8043,210.2501,-0.006091,-0.00662964,0.0,0 STARLINK-3302,1 50842U 22001AR  22037.58335648 -.00662964  00000-0 -60910-2 0  9993,2 50842  53.2171  47.1955 0001429  47.8043 210.2501 15.69015726  3694,6739.851,91.777,362.679,360.753,0.0
50842.0,STARLINK-3302,PAYLOAD,2022-02-06 22:00:00,15.68545985,0.000147,53.2173,45.5546,37.0077,304.5976,-0.0061632,-0.00658276,0.0,0 STARLINK-3302,1 50842U 22001AR  22037.91667824 -.00658276  00000-0 -61632-2 0  9997,2 50842  53.2173  45.5546 0001470  37.0077 304.5976 15.68545985  3695,6741.196999999999,91.805,364.05300000000005,362.071,0.0
50842.0,STARLINK-3302,PAYLOAD,2022-02-07 05:43:33,15.68422111,0.0001612,53.2183,43.972,101.0614,259.0586,-0.0017052,-0.00191993,0.0,0 STARLINK-3302,1 50842U 22001AR  22038.23858634 -.00191993  00000-0 -17052-2 0  9999,2 50842  53.2183  43.9720 0001612 101.0614 259.0586 15.68422111  6250,6741.552,91.812,364.503,362.33,0.0
50842.0,STARLINK-3302,PAYLOAD,2022-02-07 13:22:31,15.67961828,0.0001371,53.2183,42.4084,38.0778,322.0337,-0.0016898,-0.00186821,0.0,0 STARLINK-3302,1 50842U 22001AR  22038.55731335 -.00186821  00000-0 -16898-2 0  9993,2 50842  53.2183  42.4084 0001371  38.0778 322.0337 15.67961828  5019,6742.871,91.839,365.66,363.812,0.0
50842.0,STARLINK-3302,PAYLOAD,2022-02-07 16:00:00,15.67499641,0.0001469,53.2173,41.8718,44.8403,212.8442,-0.0064892,-0.00663461,0.0,0 STARLINK-3302,1 50842U 22001AR  22038.66667824 -.00663461  00000-0 -64892-2 0  9993,2 50842  53.2173  41.8718 0001469  44.8403 212.8442 15.67499641  6319,6744.196,91.866,367.052,365.071,0.0
50842.0,STARLINK-3302,PAYLOAD,2022-02-07 22:00:00,15.67147831,0.0001716,53.2172,40.6438,36.3017,192.7806,-0.0065463,-0.0066006,0.0,0 STARLINK-3302,1 50842U 22001AR  22038.91667824 -.00660060  00000-0 -65463-2 0  9998,2 50842  53.2172  40.6438 0001716  36.3017 192.7806 15.67147831  3707,6745.206,91.887,368.228,365.913,0.0
50842.0,STARLINK-3302,PAYLOAD,2022-02-08 14:00:01,15.66215119,0.00015,53.2172,37.3774,35.5951,355.6678,-0.0067976,-0.00659852,0.0,0 STARLINK-3302,1 50842U 22001AR  22039.58334491 -.00659852  00000-0 -67976-2 0  9991,2 50842  53.2172  37.3774 0001500  35.5951 355.6678 15.66215119  3703,6747.8830000000025,91.941,370.761,368.736,0.0
50842.0,STARLINK-3302,PAYLOAD,2022-02-08 20:00:01,15.65862935,0.0001505,53.2174,36.1515,34.6552,326.9151,-0.0068622,-0.00656935,0.0,0 STARLINK-3302,1 50842U 22001AR  22039.83335648 -.00656935  00000-0 -68622-2 0  9992,2 50842  53.2174  36.1515 0001505  34.6552 326.9151 15.65862935  6508,6748.895,91.962,371.776,369.744,0.0
50842.0,STARLINK-3302,PAYLOAD,2022-02-08 22:00:01,15.65748203,0.0001667,53.2174,35.7433,34.649,76.9306,-0.0069329,-0.00660389,0.0,0 STARLINK-3302,1 50842U 22001AR  22039.91668981 -.00660389  00000-0 -69329-2 0  9993,2 50842  53.2174  35.7433 0001667  34.6490  76.9306 15.65748203  3694,6749.225,91.969,372.215,369.965,0.0
50842.0,STARLINK-3302,PAYLOAD,2022-02-09 12:50:58,15.65258774,0.000291,53.2165,32.7213,31.7893,328.3299,-0.0034225,-0.00332901,0.0,0 STARLINK-3302,1 50842U 22001AR  22040.53540177 -.00332901  00000-0 -34225-2 0  9992,2 50842  53.2165  32.7213 0002910  31.7893 328.3299 15.65258774  5320,6750.632,91.998,374.461,370.532,0.0
50842.0,STARLINK-3302,PAYLOAD,2022-02-09 20:00:01,15.64463864,0.0001611,53.2172,31.2604,39.8164,199.495,-0.0072593,-0.00657001,0.0,0 STARLINK-3302,1 50842U 22001AR  22040.83334491 -.00657001  00000-0 -72593-2 0  9996,2 50842  53.2172  31.2604 0001611  39.8164 199.4950 15.64463864  6658,6752.918000000002,92.044,375.871,373.695,0.0
50842.0,STARLINK-3302,PAYLOAD,2022-02-10 14:00:01,15.63415657,0.0001501999999999,53.2173,27.5999,42.9736,101.4456,-0.0076054,-0.00659977,0.0,0 STARLINK-3302,1 50842U 22001AR  22041.58335648 -.00659977  00000-0 -76054-2 0  9994,2 50842  53.2173  27.5999 0001502  42.9736 101.4456 15.63415657  3694,6755.936,92.106,378.816,376.786,0.0
50842.0,STARLINK-3302,PAYLOAD,2022-02-10 16:27:13,15.637302800000002,0.0002063,53.217,27.106,54.057,306.0638,-0.0030142,-0.00277755,0.0,0 STARLINK-3302,1 50842U 22001AR  22041.68557208 -.00277755  00000-0 -30142-2 0  9991,2 50842  53.2170  27.1060 0002063  54.0570 306.0638 15.63730280  6790,6755.03,92.087,378.288,375.501,0.0
50842.0,STARLINK-3302,PAYLOAD,2022-02-10 22:00:00,15.62948997,0.0001786999999999,53.2175,25.97300000000001,36.3386,184.9022,-0.0077346,-0.00659062,0.0,0 STARLINK-3302,1 50842U 22001AR  22041.91667824 -.00659062  00000-0 -77346-2 0  9995,2 50842  53.2175  25.9730 0001787  36.3386 184.9022 15.62948997  3685,6757.281,92.134,380.353,377.93800000000016,0.0
50842.0,STARLINK-3302,PAYLOAD,2022-02-11 06:16:00,15.62857666,0.0001422,53.2169,24.303,62.1735,297.9425,-0.0037288,-0.00329762,0.0,0 STARLINK-3302,1 50842U 22001AR  22042.26111312 -.00329762  00000-0 -37288-2 0  9992,2 50842  53.2169  24.3030 0001422  62.1735 297.9425 15.62857666  6884,6757.544,92.139,380.37,378.448,0.0
50842.0,STARLINK-3302,PAYLOAD,2022-02-11 13:56:37,15.62428472,0.0002292,53.2166,22.7444,41.1095,319.0093,-0.0036014,-0.00313867,0.0,0 STARLINK-3302,1 50842U 22001AR  22042.58098482 -.00313867  00000-0 -36014-2 0  9994,2 50842  53.2166  22.7444 0002292  41.1095 319.0093 15.62428472  6936,6758.781999999997,92.164,382.196,379.097,0.0
50842.0,STARLINK-3302,PAYLOAD,2022-02-11 14:00:01,15.62015658,0.0001445,53.2173,22.7266,39.8063,333.5246,-0.0080251,-0.00659139,0.0,0 STARLINK-3302,1 50842U 22001AR  22042.58334491 -.00659139  00000-0 -80251-2 0  9994,2 50842  53.2173  22.7266 0001445  39.8063 333.5246 15.62015658  3705,6759.972,92.189,382.814,380.861,0.0
50842.0,STARLINK-3302,PAYLOAD,2022-02-11 22:00:01,15.6154807,0.0001573,53.2174,21.1032,38.4272,50.1739,-0.0081423,-0.00656878,0.0,0 STARLINK-3302,1 50842U 22001AR  22042.91668981 -.00656878  00000-0 -81423-2 0  9994,2 50842  53.2174  21.1032 0001573  38.4272  50.1739 15.61548070  6989,6761.321999999999,92.216,384.25,382.12300000000016,0.0
50842.0,STARLINK-3302,PAYLOAD,2022-02-12 05:18:14,15.61509177,0.0001871,53.2167,19.6318,53.1694,306.9492,-0.0039557,-0.00331825,0.0,0 STARLINK-3302,1 50842U 22001AR  22043.22100208 -.00331825  00000-0 -39557-2 0  9995,2 50842  53.2167  19.6318 0001871  53.1694 306.9492 15.61509177  7033,6761.434,92.218,384.564,382.034,0.0
50842.0,STARLINK-3302,PAYLOAD,2022-02-12 14:00:01,15.60617477,0.0001595999999999,53.2173,17.8634,42.256,195.0054,-0.0085096,-0.00661758,0.0,0 STARLINK-3302,1 50842U 22001AR  22043.58334491 -.00661758  00000-0 -85096-2 0  9997,2 50842  53.2173  17.8634 0001596  42.2560 195.0054 15.60617477  3709,6764.009,92.271,386.954,384.795,0.0
50842.0,STARLINK-3302,PAYLOAD,2022-02-12 22:00:00,15.60148475,0.0001653,53.2175,16.2435,36.7412,274.0438,-0.0085886,-0.00656373,0.0,0 STARLINK-3302,1 50842U 22001AR  22043.91667824 -.00656373  00000-0 -85886-2 0  9997,2 50842  53.2175  16.2435 0001653  36.7412 274.0438 15.60148475  7133,6765.365,92.299,388.348,386.112,0.0
50842.0,STARLINK-3302,PAYLOAD,2022-02-13 14:00:01,15.59216043,0.0001649,53.2174,13.0104,35.1468,61.0005,-0.0089278999999999,-0.00658172,0.0,0 STARLINK-3302,1 50842U 22001AR  22044.58334491 -.00658172  00000-0 -89279-2 0  9991,2 50842  53.2174  13.0104 0001649  35.1468  61.0005 15.59216043  3707,6768.062,92.354,391.043,388.811,0.0
50842.0,STARLINK-3302,PAYLOAD,2022-02-13 22:00:00,15.58749091,0.000185,53.2176,11.3941,35.2203,132.7677,-0.0090619,-0.00656433,0.0,0 STARLINK-3302,1 50842U 22001AR  22044.91667824 -.00656433  00000-0 -90619-2 0  9995,2 50842  53.2176  11.3941 0001850  35.2203 132.7677 15.58749091  7293,6769.413000000001,92.382,392.531,390.026,0.0
50842.0,STARLINK-3302,PAYLOAD,2022-02-14 14:00:01,15.57817857,0.0001448,53.2174,8.1674,44.6411,265.3454,-0.009458,-0.00660893,0.0,0 STARLINK-3302,1 50842U 22001AR  22045.58334491 -.00660893  00000-0 -94580-2 0  9996,2 50842  53.2174   8.1674 0001448  44.6411 265.3454 15.57817857  3709,6772.111,92.437,394.956,392.995,0.0
50842.0,STARLINK-3302,PAYLOAD,2022-02-14 20:00:01,15.57465521,0.0001679,53.2173,6.9573,38.3579,234.3015,-0.0095169,-0.00656616,0.0,0 STARLINK-3302,1 50842U 22001AR  22045.83334491 -.00656616  00000-0 -95169-2 0  9996,2 50842  53.2173   6.9573 0001679  38.3579 234.3015 15.57465521  7433,6773.132,92.458,396.134,393.86,0.0
